CZ-4B R/B               
1 28415U 04035C   25280.55601225  .00009684  00000+0  37372-3 0  9996
2 28415  97.3703 311.8196 0035532 148.4586 211.8793 15.25894337156532
CZ-2C R/B               
1 28480U 04046B   25280.48332020  .00000316  00000+0  13352-3 0  9991
2 28480  98.1922 200.0011 0138344 247.8053 110.8402 14.26898118 86650
ARIANE 5 R/B            
1 28499U 04049H   25280.41342326  .00001779  00000+0  20317-3 0  9990
2 28499  98.2486  78.3452 0085871 127.3029 233.6052 14.84803607123045
CZ-2D R/B               
1 28738U 05024B   25280.59095017  .00031817  00000+0  59264-3 0  9990
2 28738  97.3693 286.4951 0004319 198.7226 161.3866 15.48775484116006
ALOS (DAICHI)           
1 28931U 06002A   25280.43469807  .00002344  00000+0  40685-3 0  9997
2 28931  98.0971 232.4464 0002346  75.6682 284.4784 14.69152303 50975
H-2A R/B                
1 28932U 06002B   25280.34967972  .00009622  00000+0  52920-3 0  9995
2 28932  98.2263  49.7981 0056936  42.9755 317.5900 15.12907457 71223
RESURS-DK 1             
1 29228U 06021A   25280.47047533  .00004145  00000+0  24955-3 0  9993
2 29228  69.9322 273.0244 0006163 317.4380  42.6307 15.11610060 64362
CZ-4B R/B               
1 29507U 06046C   25280.07734186  .00006290  00000+0  33579-3 0  9998
2 29507  97.5839 320.4012 0036248  79.9528 280.5791 15.14916125 36771
CZ-2C R/B               
1 31114U 07010B   25280.35187790  .00000193  00000+0  10763-3 0  9997
2 31114  98.3923  36.3643 0059413  21.1917 339.1703 14.20172818957959
COSMO-SKYMED 1          
1 31598U 07023A   25280.61184310  .00004896  00000+0  45194-3 0  9991
2 31598  97.8883 105.6010 0001492  84.0878 276.0512 14.95098490992018
COSMOS 2428             
1 31792U 07029A   25280.61324878 -.00000175  00000+0 -68524-4 0  9999
2 31792  70.9411 164.7008 0002375 178.1143 181.9987 14.12900866942470
SL-16 R/B               
1 31793U 07029B   25280.37551937  .00000287  00000+0  17347-3 0  9999
2 31793  70.9740 134.6564 0002465 265.4403 267.0489 14.14800534943688
KORONAS-FOTON           
1 33504U 09003A   25280.48212862  .00014948  00000+0  38557-3 0  9993
2 33504  82.4295  74.6316 0011571 352.3859   7.7208 15.38972517922144
CZ-2C R/B               
1 37731U 11030B   25280.44694417  .00001914  00000+0  25022-3 0  9990
2 37731  97.8292 236.0817 0054442 127.9161 345.5533 14.80561562767414
H-2A R/B                
1 38341U 12025E   25280.40567425  .00004485  00000+0  42051-3 0  9994
2 38341  98.4475 230.6023 0047494  93.7565 266.9085 14.93736106725322
SHIJIAN-16 (SJ-16)      
1 39358U 13057A   25280.61275323  .00001532  00000+0  15494-3 0  9996
2 39358  74.9695 114.7404 0016235 126.5171 233.7515 14.91658507648674
SL-4 R/B                
1 39679U 14021B   25280.48738050  .00016146  00000+0  40953-3 0  9995
2 39679  51.6107   1.9592 0106892 266.6995  92.1754 15.34131490632719
ALOS-2                  
1 39766U 14029A   25280.59810487  .00002681  00000+0  36571-3 0  9997
2 39766  97.9233  16.3871 0001439  95.4758 264.6618 14.79478115614233
YAOGAN-29               
1 41038U 15069A   25280.62196041  .00000682  00000+0  91142-4 0  9999
2 41038  98.0296 303.5544 0002806 108.9046 251.2472 14.82774153533196
ASTRO-H (HITOMI)        
1 41337U 16012A   25280.41329008  .00004558  00000+0  27726-3 0  9990
2 41337  31.0000 264.7609 0010276 232.5061 127.4643 15.08742122529053
HXMT (HUIYAN)           
1 42758U 17034A   25280.62852142  .00007500  00000+0  39919-3 0  9993
2 42758  43.0128 146.1982 0033597 346.0044  13.9869 15.15169456459305
CZ-2C R/B               
1 43521U 18054D   25280.35987544  .00076513  00000+0  83658-3 0  9999
2 43521  35.1366 266.4705 0030891 230.2828 129.5176 15.61494824404639
SAOCOM 1A               
1 43641U 18076A   25280.57904544  .00000753  00000+0  10109-3 0  9993
2 43641  97.8892 105.9526 0001308  88.0987 272.0376 14.82165230378684
H-2A R/B                
1 43682U 18084L   25280.49482318  .00022981  00000+0  68742-3 0  9991
2 43682  98.8826 101.0170 0029496 191.6844 168.3713 15.34151402382232
SAOCOM 1B               
1 46265U 20059A   25280.61034190  .00000751  00000+0  10090-3 0  9995
2 46265  97.8881 105.0883 0001354  91.4069 268.7299 14.82147857276075
CSS (TIANHE)            
1 48274U 21035A   25280.58218309  .00033849  00000+0  39038-3 0  9991
2 48274  41.4652  58.8403 0002666 207.3576 152.7122 15.61229112253692
COSMOS 2550             
1 48865U 21056A   25280.54037014 -.00000167  00000+0  77016-6 0  9997
2 48865  67.1404 144.2360 0008484 269.1757  90.8426 15.33835116239971
CZ-2C R/B               
1 52794U 22058K   25280.30736143  .00025209  00000+0  52098-3 0  9992
2 52794  50.1934  21.1800 0052984 281.0016  78.4993 15.44107159186359
GSLV R/B                
1 54149U 22138AN  25280.36055238  .00004947  00000+0  44200-3 0  9994
2 54149  87.3838 217.6807 0021781 356.9225   3.1868 14.95540580161009
XRISM                   
1 57800U 23137A   25280.45973023  .00007854  00000+0  47436-3 0  9996
2 57800  31.0021 193.1427 0008609 298.0377  61.9390 15.09319438114608
ACS3                    
1 59588U 24077B   25280.50790708  .00029014  00000+0  26922-1 0  9995
2 59588  97.3747 250.6838 0023441 338.3986  21.6182 13.81926716 72980
